CSS (TIANHE)            
1 48274U 21035A   24054.12557324  .00034404  00000+0  38121-3 0  9992
2 48274  41.4683  66.1786 0008407   7.6155 352.4811 15.62220405161087
